[{"OBJECT_NAME":"SL-8 R/B","OBJECT_ID":"1979-089B","EPOCH":"2026-03-16T18:01:08.618880","MEAN_MOTION":14.42355741,"ECCENTRICITY":0.0017066,"INCLINATION":74.0669,"RA_OF_ASC_NODE":77.971,"ARG_OF_PERICENTER":249.9068,"MEAN_ANOMALY":110.0252,"EPHEMERIS_TYPE":0,"CLASSIFICATION_TYPE":"U","NORAD_CAT_ID":11574,"ELEMENT_SET_NO":999,"REV_AT_EPOCH":43712,"BSTAR":9.8164e-5,"MEAN_MOTION_DOT":2.98e-6,"MEAN_MOTION_DDOT":0},{"OBJECT_NAME":"SL-14 R/B","OBJECT_ID":"1980-005B","EPOCH":"2026-03-16T13:45:31.141440","MEAN_MOTION":14.90938297,"ECCENTRICITY":0.0016727,"INCLINATION":82.5133,"RA_OF_ASC_NODE":300.7062,"ARG_OF_PERICENTER":136.4495,"MEAN_ANOMALY":223.8048,"EPHEMERIS_TYPE":0,"CLASSIFICATION_TYPE":"U","NORAD_CAT_ID":11672,"ELEMENT_SET_NO":999,"REV_AT_EPOCH":47751,"BSTAR":4.8052e-5,"MEAN_MOTION_DOT":5.01e-6,"MEAN_MOTION_DDOT":0},{"OBJECT_NAME":"SL-8 R/B","OBJECT_ID":"1981-003B","EPOCH":"2026-03-16T19:42:50.645664","MEAN_MOTION":15.11284694,"ECCENTRICITY":0.0261491,"INCLINATION":82.937,"RA_OF_ASC_NODE":283.4289,"ARG_OF_PERICENTER":153.7912,"MEAN_ANOMALY":207.6836,"EPHEMERIS_TYPE":0,"CLASSIFICATION_TYPE":"U","NORAD_CAT_ID":12139,"ELEMENT_SET_NO":999,"REV_AT_EPOCH":31575,"BSTAR":0.0005219,"MEAN_MOTION_DOT":0.00020508,"MEAN_MOTION_DDOT":0},{"OBJECT_NAME":"SL-3 R/B","OBJECT_ID":"1981-046B","EPOCH":"2026-03-16T19:00:55.469088","MEAN_MOTION":15.42182295,"ECCENTRICITY":0.001898,"INCLINATION":81.2286,"RA_OF_ASC_NODE":281.2139,"ARG_OF_PERICENTER":357.6592,"MEAN_ANOMALY":2.4559,"EPHEMERIS_TYPE":0,"CLASSIFICATION_TYPE":"U","NORAD_CAT_ID":12465,"ELEMENT_SET_NO":999,"REV_AT_EPOCH":43952,"BSTAR":0.00023984,"MEAN_MOTION_DOT":0.00010382,"MEAN_MOTION_DDOT":0},{"OBJECT_NAME":"SL-3 R/B","OBJECT_ID":"1981-103B","EPOCH":"2026-03-16T19:25:40.996992","MEAN_MOTION":15.21468619,"ECCENTRICITY":0.0012453,"INCLINATION":81.1597,"RA_OF_ASC_NODE":205.0802,"ARG_OF_PERICENTER":261.1253,"MEAN_ANOMALY":98.8569,"EPHEMERIS_TYPE":0,"CLASSIFICATION_TYPE":"U","NORAD_CAT_ID":12904,"ELEMENT_SET_NO":999,"REV_AT_EPOCH":97431,"BSTAR":0.00021023,"MEAN_MOTION_DOT":4.759e-5,"MEAN_MOTION_DDOT":0},{"OBJECT_NAME":"SL-3 R/B","OBJECT_ID":"1982-013B","EPOCH":"2026-03-16T19:33:05.471424","MEAN_MOTION":15.22089215,"ECCENTRICITY":0.002304,"INCLINATION":81.1761,"RA_OF_ASC_NODE":152.4208,"ARG_OF_PERICENTER":153.7158,"MEAN_ANOMALY":206.5249,"EPHEMERIS_TYPE":0,"CLASSIFICATION_TYPE":"U","NORAD_CAT_ID":13068,"ELEMENT_SET_NO":999,"REV_AT_EPOCH":40543,"BSTAR":0.00017956,"MEAN_MOTION_DOT":4.165e-5,"MEAN_MOTION_DDOT":0},{"OBJECT_NAME":"SL-3 R/B","OBJECT_ID":"1982-039B","EPOCH":"2026-03-16T19:30:41.467680","MEAN_MOTION":15.10124124,"ECCENTRICITY":0.0029408,"INCLINATION":81.1578,"RA_OF_ASC_NODE":207.7492,"ARG_OF_PERICENTER":301.1422,"MEAN_ANOMALY":58.6919,"EPHEMERIS_TYPE":0,"CLASSIFICATION_TYPE":"U","NORAD_CAT_ID":13154,"ELEMENT_SET_NO":999,"REV_AT_EPOCH":38271,"BSTAR":0.00014231,"MEAN_MOTION_DOT":2.366e-5,"MEAN_MOTION_DDOT":0},{"OBJECT_NAME":"SL-3 R/B","OBJECT_ID":"1982-079B","EPOCH":"2026-03-16T19:40:06.896928","MEAN_MOTION":15.24909152,"ECCENTRICITY":0.0025281,"INCLINATION":81.1489,"RA_OF_ASC_NODE":184.6595,"ARG_OF_PERICENTER":141.1517,"MEAN_ANOMALY":219.154,"EPHEMERIS_TYPE":0,"CLASSIFICATION_TYPE":"U","NORAD_CAT_ID":13403,"ELEMENT_SET_NO":999,"REV_AT_EPOCH":37878,"BSTAR":0.00021055,"MEAN_MOTION_DOT":5.313e-5,"MEAN_MOTION_DDOT":0},{"OBJECT_NAME":"SL-14 R/B","OBJECT_ID":"1982-092B","EPOCH":"2026-03-16T14:17:51.300960","MEAN_MOTION":14.86672985,"ECCENTRICITY":0.0018776,"INCLINATION":82.5682,"RA_OF_ASC_NODE":134.9401,"ARG_OF_PERICENTER":278.9297,"MEAN_ANOMALY":247.3834,"EPHEMERIS_TYPE":0,"CLASSIFICATION_TYPE":"U","NORAD_CAT_ID":13553,"ELEMENT_SET_NO":999,"REV_AT_EPOCH":32995,"BSTAR":4.4654e-5,"MEAN_MOTION_DOT":4.22e-6,"MEAN_MOTION_DDOT":0},{"OBJECT_NAME":"SL-3 R/B","OBJECT_ID":"1983-010B","EPOCH":"2026-03-16T17:58:24.311136","MEAN_MOTION":15.46618063,"ECCENTRICITY":0.0017313,"INCLINATION":81.1066,"RA_OF_ASC_NODE":353.592,"ARG_OF_PERICENTER":28.0226,"MEAN_ANOMALY":332.1947,"EPHEMERIS_TYPE":0,"CLASSIFICATION_TYPE":"U","NORAD_CAT_ID":13819,"ELEMENT_SET_NO":999,"REV_AT_EPOCH":35903,"BSTAR":0.00027036,"MEAN_MOTION_DOT":0.00013583,"MEAN_MOTION_DDOT":0},{"OBJECT_NAME":"SL-3 R/B","OBJECT_ID":"1983-075B","EPOCH":"2026-03-16T20:11:46.400928","MEAN_MOTION":15.38595284,"ECCENTRICITY":0.0020843,"INCLINATION":97.6136,"RA_OF_ASC_NODE":80.6902,"ARG_OF_PERICENTER":198.9821,"MEAN_ANOMALY":161.0649,"EPHEMERIS_TYPE":0,"CLASSIFICATION_TYPE":"U","NORAD_CAT_ID":14208,"ELEMENT_SET_NO":999,"REV_AT_EPOCH":33125,"BSTAR":0.00024959,"MEAN_MOTION_DOT":9.494e-5,"MEAN_MOTION_DDOT":0},{"OBJECT_NAME":"COSMOS 1536","OBJECT_ID":"1984-013A","EPOCH":"2026-03-16T03:43:14.241216","MEAN_MOTION":15.23916586,"ECCENTRICITY":0.00124402,"INCLINATION":82.5418,"RA_OF_ASC_NODE":101.4219,"ARG_OF_PERICENTER":257.4745,"MEAN_ANOMALY":102.5101,"EPHEMERIS_TYPE":0,"CLASSIFICATION_TYPE":"U","NORAD_CAT_ID":14699,"ELEMENT_SET_NO":999,"REV_AT_EPOCH":27360,"BSTAR":0.00027329804,"MEAN_MOTION_DOT":6.647e-5,"MEAN_MOTION_DDOT":0},{"OBJECT_NAME":"SL-14 R/B","OBJECT_ID":"1984-027B","EPOCH":"2026-03-16T19:56:28.774176","MEAN_MOTION":14.85984161,"ECCENTRICITY":0.0016841,"INCLINATION":82.5396,"RA_OF_ASC_NODE":238.3137,"ARG_OF_PERICENTER":313.1227,"MEAN_ANOMALY":46.858,"EPHEMERIS_TYPE":0,"CLASSIFICATION_TYPE":"U","NORAD_CAT_ID":14820,"ELEMENT_SET_NO":999,"REV_AT_EPOCH":24869,"BSTAR":5.1325e-5,"MEAN_MOTION_DOT":4.73e-6,"MEAN_MOTION_DDOT":0},{"OBJECT_NAME":"SL-8 R/B","OBJECT_ID":"1985-006B","EPOCH":"2026-03-16T17:53:19.022784","MEAN_MOTION":14.37788477,"ECCENTRICITY":0.0018149,"INCLINATION":74.0434,"RA_OF_ASC_NODE":248.1637,"ARG_OF_PERICENTER":164.0958,"MEAN_ANOMALY":206.7865,"EPHEMERIS_TYPE":0,"CLASSIFICATION_TYPE":"U","NORAD_CAT_ID":15483,"ELEMENT_SET_NO":999,"REV_AT_EPOCH":15504,"BSTAR":0.00011359,"MEAN_MOTION_DOT":3.16e-6,"MEAN_MOTION_DDOT":0},{"OBJECT_NAME":"SL-12 R/B(2)","OBJECT_ID":"1985-042D","EPOCH":"2026-03-16T18:00:35.519040","MEAN_MOTION":14.21984486,"ECCENTRICITY":0.0033011,"INCLINATION":71.1065,"RA_OF_ASC_NODE":72.8099,"ARG_OF_PERICENTER":116.4851,"MEAN_ANOMALY":55.5136,"EPHEMERIS_TYPE":0,"CLASSIFICATION_TYPE":"U","NORAD_CAT_ID":15772,"ELEMENT_SET_NO":999,"REV_AT_EPOCH":11539,"BSTAR":5.0882e-5,"MEAN_MOTION_DOT":6.6e-7,"MEAN_MOTION_DDOT":0},{"OBJECT_NAME":"SL-14 R/B","OBJECT_ID":"1985-069B","EPOCH":"2026-03-16T21:08:23.033760","MEAN_MOTION":14.86441533,"ECCENTRICITY":0.0019133,"INCLINATION":82.5296,"RA_OF_ASC_NODE":18.1723,"ARG_OF_PERICENTER":163.878,"MEAN_ANOMALY":196.305,"EPHEMERIS_TYPE":0,"CLASSIFICATION_TYPE":"U","NORAD_CAT_ID":15945,"ELEMENT_SET_NO":999,"REV_AT_EPOCH":17390,"BSTAR":5.0821e-5,"MEAN_MOTION_DOT":4.75e-6,"MEAN_MOTION_DDOT":0},{"OBJECT_NAME":"SL-16 R/B","OBJECT_ID":"1985-097B","EPOCH":"2026-03-16T20:35:55.457664","MEAN_MOTION":14.16598709,"ECCENTRICITY":0.0009714,"INCLINATION":71.0016,"RA_OF_ASC_NODE":125.4628,"ARG_OF_PERICENTER":250.9688,"MEAN_ANOMALY":283.5089,"EPHEMERIS_TYPE":0,"CLASSIFICATION_TYPE":"U","NORAD_CAT_ID":16182,"ELEMENT_SET_NO":999,"REV_AT_EPOCH":8824,"BSTAR":0.00010301,"MEAN_MOTION_DOT":1.58e-6,"MEAN_MOTION_DDOT":0}]
