SL-8 R/B                
1 11574U 79089B   26075.75079420  .00000298  00000+0  98164-4 0  9995
2 11574  74.0669  77.9710 0017066 249.9068 110.0252 14.42355741437125
SL-14 R/B               
1 11672U 80005B   26075.57327710  .00000501  00000+0  48052-4 0  9990
2 11672  82.5133 300.7062 0016727 136.4495 223.8048 14.90938297477517
SL-8 R/B                
1 12139U 81003B   26075.82141951  .00020508  00000+0  52190-3 0  9993
2 12139  82.9370 283.4289 0261491 153.7912 207.6836 15.11284694315758
SL-3 R/B                
1 12465U 81046B   26075.79230867  .00010382  00000+0  23984-3 0  9991
2 12465  81.2286 281.2139 0018980 357.6592   2.4559 15.42182295439523
SL-3 R/B                
1 12904U 81103B   26075.80950228  .00004759  00000+0  21023-3 0  9998
2 12904  81.1597 205.0802 0012453 261.1253  98.8569 15.21468619974313
SL-3 R/B                
1 13068U 82013B   26075.81464666  .00004165  00000+0  17956-3 0  9999
2 13068  81.1761 152.4208 0023040 153.7158 206.5249 15.22089215405434
SL-3 R/B                
1 13154U 82039B   26075.81297995  .00002366  00000+0  14231-3 0  9996
2 13154  81.1578 207.7492 0029408 301.1422  58.6919 15.10124124382713
SL-3 R/B                
1 13403U 82079B   26075.81952427  .00005313  00000+0  21055-3 0  9992
2 13403  81.1489 184.6595 0025281 141.1517 219.1540 15.24909152378783
SL-14 R/B               
1 13553U 82092B   26075.59573265  .00000422  00000+0  44654-4 0  9994
2 13553  82.5682 134.9401 0018776 278.9297 247.3834 14.86672985329950
SL-3 R/B                
1 13819U 83010B   26075.74889249  .00013583  00000+0  27036-3 0  9995
2 13819  81.1066 353.5920 0017313  28.0226 332.1947 15.46618063359037
SL-3 R/B                
1 14208U 83075B   26075.84150927  .00009494  00000+0  24959-3 0  9991
2 14208  97.6136  80.6902 0020843 198.9821 161.0649 15.38595284331250
COSMOS 1536             
1 14699U 84013A   26075.15502594  .00006647  00000+0  27330-3 0  9996
2 14699  82.5418 101.4219 0012440 257.4745 102.5101 15.23916586273606
SL-14 R/B               
1 14820U 84027B   26075.83088859  .00000473  00000+0  51325-4 0  9998
2 14820  82.5396 238.3137 0016841 313.1227  46.8580 14.85984161248693
SL-8 R/B                
1 15483U 85006B   26075.74535906  .00000316  00000+0  11359-3 0  9990
2 15483  74.0434 248.1637 0018149 164.0958 206.7865 14.37788477155047
SL-12 R/B(2)            
1 15772U 85042D   26075.75041110  .00000066  00000+0  50882-4 0  9998
2 15772  71.1065  72.8099 0033011 116.4851  55.5136 14.21984486115394
SL-14 R/B               
1 15945U 85069B   26075.88082215  .00000475  00000+0  50821-4 0  9991
2 15945  82.5296  18.1723 0019133 163.8780 196.3050 14.86441533173903
SL-16 R/B               
1 16182U 85097B   26075.85828076  .00000158  00000+0  10301-3 0  9992
2 16182  71.0016 125.4628 0009714 250.9688 283.5089 14.16598709 88249
